[{"OBJECT_NAME":"UNKNOWN","OBJECT_ID":"","EPOCH":"2026-01-31T23:36:50.183424","MEAN_MOTION":13.96385578,"ECCENTRICITY":0.00172941,"INCLINATION":82.5415,"RA_OF_ASC_NODE":124.9629,"ARG_OF_PERICENTER":27.8572,"MEAN_ANOMALY":332.3517,"EPHEMERIS_TYPE":0,"CLASSIFICATION_TYPE":"U","NORAD_CAT_ID":270020,"ELEMENT_SET_NO":999,"REV_AT_EPOCH":31397,"BSTAR":0.00095437625,"MEAN_MOTION_DOT":1.332e-5,"MEAN_MOTION_DDOT":0},{"OBJECT_NAME":"UNKNOWN","OBJECT_ID":"","EPOCH":"2026-01-31T14:44:27.834720","MEAN_MOTION":12.65865157,"ECCENTRICITY":0.00553874,"INCLINATION":82.7185,"RA_OF_ASC_NODE":152.8437,"ARG_OF_PERICENTER":320.0686,"MEAN_ANOMALY":39.634,"EPHEMERIS_TYPE":0,"CLASSIFICATION_TYPE":"U","NORAD_CAT_ID":270021,"ELEMENT_SET_NO":999,"REV_AT_EPOCH":28537,"BSTAR":0.0018588199,"MEAN_MOTION_DOT":3.61e-6,"MEAN_MOTION_DDOT":0},{"OBJECT_NAME":"UNKNOWN","OBJECT_ID":"","EPOCH":"2026-01-25T07:18:08.229024","MEAN_MOTION":12.65405503,"ECCENTRICITY":0.0586028,"INCLINATION":100.131,"RA_OF_ASC_NODE":237.0403,"ARG_OF_PERICENTER":340.5059,"MEAN_ANOMALY":17.4434,"EPHEMERIS_TYPE":0,"CLASSIFICATION_TYPE":"U","NORAD_CAT_ID":270022,"ELEMENT_SET_NO":999,"REV_AT_EPOCH":28124,"BSTAR":0.0203566,"MEAN_MOTION_DOT":7.42e-5,"MEAN_MOTION_DDOT":0},{"OBJECT_NAME":"UNKNOWN","OBJECT_ID":"","EPOCH":"2026-02-01T03:23:05.764416","MEAN_MOTION":12.45728445,"ECCENTRICITY":0.0024603,"INCLINATION":73.6375,"RA_OF_ASC_NODE":190.3674,"ARG_OF_PERICENTER":344.7175,"MEAN_ANOMALY":15.3125,"EPHEMERIS_TYPE":0,"CLASSIFICATION_TYPE":"U","NORAD_CAT_ID":270023,"ELEMENT_SET_NO":999,"REV_AT_EPOCH":28099,"BSTAR":0.0013431247,"MEAN_MOTION_DOT":1.76e-6,"MEAN_MOTION_DDOT":0},{"OBJECT_NAME":"UNKNOWN","OBJECT_ID":"","EPOCH":"2026-01-05T19:18:32.126400","MEAN_MOTION":12.62476679,"ECCENTRICITY":8.3e-5,"INCLINATION":51.9814,"RA_OF_ASC_NODE":52.8413,"ARG_OF_PERICENTER":124.1134,"MEAN_ANOMALY":235.9812,"EPHEMERIS_TYPE":0,"CLASSIFICATION_TYPE":"U","NORAD_CAT_ID":270024,"ELEMENT_SET_NO":999,"REV_AT_EPOCH":28195,"BSTAR":0.00020615479,"MEAN_MOTION_DOT":-6.7e-7,"MEAN_MOTION_DDOT":0},{"OBJECT_NAME":"UNKNOWN","OBJECT_ID":"","EPOCH":"2026-01-20T14:57:40.494240","MEAN_MOTION":14.22281858,"ECCENTRICITY":0.00743994,"INCLINATION":98.5947,"RA_OF_ASC_NODE":344.0552,"ARG_OF_PERICENTER":322.7864,"MEAN_ANOMALY":36.8171,"EPHEMERIS_TYPE":0,"CLASSIFICATION_TYPE":"U","NORAD_CAT_ID":270025,"ELEMENT_SET_NO":999,"REV_AT_EPOCH":31827,"BSTAR":0.0011049425,"MEAN_MOTION_DOT":2.482e-5,"MEAN_MOTION_DDOT":0},{"OBJECT_NAME":"UNKNOWN","OBJECT_ID":"","EPOCH":"2026-01-30T01:41:34.704384","MEAN_MOTION":11.92185852,"ECCENTRICITY":0.03968698,"INCLINATION":103.3392,"RA_OF_ASC_NODE":150.3538,"ARG_OF_PERICENTER":228.169,"MEAN_ANOMALY":128.4813,"EPHEMERIS_TYPE":0,"CLASSIFICATION_TYPE":"U","NORAD_CAT_ID":270026,"ELEMENT_SET_NO":999,"REV_AT_EPOCH":26860,"BSTAR":0.015751248,"MEAN_MOTION_DOT":1.397e-5,"MEAN_MOTION_DDOT":0},{"OBJECT_NAME":"UNKNOWN","OBJECT_ID":"","EPOCH":"2026-02-01T09:29:19.999104","MEAN_MOTION":11.80319079,"ECCENTRICITY":0.0498207,"INCLINATION":100.9452,"RA_OF_ASC_NODE":271.7076,"ARG_OF_PERICENTER":53.711,"MEAN_ANOMALY":310.889,"EPHEMERIS_TYPE":0,"CLASSIFICATION_TYPE":"U","NORAD_CAT_ID":270027,"ELEMENT_SET_NO":999,"REV_AT_EPOCH":26593,"BSTAR":0.040944083,"MEAN_MOTION_DOT":3.603e-5,"MEAN_MOTION_DDOT":0},{"OBJECT_NAME":"UNKNOWN","OBJECT_ID":"","EPOCH":"2026-01-31T23:32:20.925600","MEAN_MOTION":13.963972,"ECCENTRICITY":0.00055606,"INCLINATION":82.5212,"RA_OF_ASC_NODE":118.49,"ARG_OF_PERICENTER":246.7955,"MEAN_ANOMALY":113.2626,"EPHEMERIS_TYPE":0,"CLASSIFICATION_TYPE":"U","NORAD_CAT_ID":270029,"ELEMENT_SET_NO":999,"REV_AT_EPOCH":31389,"BSTAR":0.0017334035,"MEAN_MOTION_DOT":2.405e-5,"MEAN_MOTION_DDOT":0},{"OBJECT_NAME":"UNKNOWN","OBJECT_ID":"","EPOCH":"2026-01-23T16:12:16.454016","MEAN_MOTION":13.02085161,"ECCENTRICITY":0.00357226,"INCLINATION":90.2669,"RA_OF_ASC_NODE":18.044,"ARG_OF_PERICENTER":309.7231,"MEAN_ANOMALY":50.0745,"EPHEMERIS_TYPE":0,"CLASSIFICATION_TYPE":"U","NORAD_CAT_ID":270030,"ELEMENT_SET_NO":999,"REV_AT_EPOCH":29252,"BSTAR":0.0030147453,"MEAN_MOTION_DOT":9.44e-6,"MEAN_MOTION_DDOT":0},{"OBJECT_NAME":"UNKNOWN","OBJECT_ID":"","EPOCH":"2026-02-01T16:39:51.286176","MEAN_MOTION":13.00206096,"ECCENTRICITY":0.00084558,"INCLINATION":90.2582,"RA_OF_ASC_NODE":17.6629,"ARG_OF_PERICENTER":337.9551,"MEAN_ANOMALY":22.1207,"EPHEMERIS_TYPE":0,"CLASSIFICATION_TYPE":"U","NORAD_CAT_ID":270031,"ELEMENT_SET_NO":999,"REV_AT_EPOCH":29309,"BSTAR":0.0016078442,"MEAN_MOTION_DOT":4.92e-6,"MEAN_MOTION_DDOT":0},{"OBJECT_NAME":"UNKNOWN","OBJECT_ID":"","EPOCH":"2026-01-30T20:00:02.943360","MEAN_MOTION":11.8064146,"ECCENTRICITY":0.02445605,"INCLINATION":81.2987,"RA_OF_ASC_NODE":235.5328,"ARG_OF_PERICENTER":83.1064,"MEAN_ANOMALY":279.773,"EPHEMERIS_TYPE":0,"CLASSIFICATION_TYPE":"U","NORAD_CAT_ID":270032,"ELEMENT_SET_NO":999,"REV_AT_EPOCH":26625,"BSTAR":0.0071424304,"MEAN_MOTION_DOT":5.02e-6,"MEAN_MOTION_DDOT":0},{"OBJECT_NAME":"UNKNOWN","OBJECT_ID":"","EPOCH":"2026-01-30T04:23:52.684224","MEAN_MOTION":13.72053679,"ECCENTRICITY":0.05736993,"INCLINATION":81.9683,"RA_OF_ASC_NODE":195.9,"ARG_OF_PERICENTER":312.638,"MEAN_ANOMALY":42.7731,"EPHEMERIS_TYPE":0,"CLASSIFICATION_TYPE":"U","NORAD_CAT_ID":270033,"ELEMENT_SET_NO":999,"REV_AT_EPOCH":30867,"BSTAR":0.00035062688,"MEAN_MOTION_DOT":1.067e-5,"MEAN_MOTION_DDOT":0},{"OBJECT_NAME":"UNKNOWN","OBJECT_ID":"","EPOCH":"2026-02-01T11:42:35.161344","MEAN_MOTION":13.26607862,"ECCENTRICITY":0.06245115,"INCLINATION":99.3509,"RA_OF_ASC_NODE":306.5925,"ARG_OF_PERICENTER":161.0481,"MEAN_ANOMALY":201.5054,"EPHEMERIS_TYPE":0,"CLASSIFICATION_TYPE":"U","NORAD_CAT_ID":270034,"ELEMENT_SET_NO":999,"REV_AT_EPOCH":8531,"BSTAR":0.0012818233,"MEAN_MOTION_DOT":1.621e-5,"MEAN_MOTION_DDOT":0},{"OBJECT_NAME":"UNKNOWN","OBJECT_ID":"","EPOCH":"2026-01-30T21:50:30.936192","MEAN_MOTION":14.00410259,"ECCENTRICITY":0.00885711,"INCLINATION":82.442,"RA_OF_ASC_NODE":272.4195,"ARG_OF_PERICENTER":168.6114,"MEAN_ANOMALY":191.7088,"EPHEMERIS_TYPE":0,"CLASSIFICATION_TYPE":"U","NORAD_CAT_ID":270035,"ELEMENT_SET_NO":999,"REV_AT_EPOCH":31422,"BSTAR":0.0011897998,"MEAN_MOTION_DOT":1.838e-5,"MEAN_MOTION_DDOT":0},{"OBJECT_NAME":"UNKNOWN","OBJECT_ID":"","EPOCH":"2026-02-01T06:22:01.418880","MEAN_MOTION":13.76105296,"ECCENTRICITY":0.01076078,"INCLINATION":100.3708,"RA_OF_ASC_NODE":229.2618,"ARG_OF_PERICENTER":345.4055,"MEAN_ANOMALY":14.3992,"EPHEMERIS_TYPE":0,"CLASSIFICATION_TYPE":"U","NORAD_CAT_ID":270036,"ELEMENT_SET_NO":999,"REV_AT_EPOCH":30992,"BSTAR":0.001525285,"MEAN_MOTION_DOT":1.495e-5,"MEAN_MOTION_DDOT":0},{"OBJECT_NAME":"UNKNOWN","OBJECT_ID":"","EPOCH":"2026-02-01T13:24:55.901376","MEAN_MOTION":12.80980929,"ECCENTRICITY":0.02071855,"INCLINATION":102.8424,"RA_OF_ASC_NODE":148.2581,"ARG_OF_PERICENTER":287.4355,"MEAN_ANOMALY":70.4175,"EPHEMERIS_TYPE":0,"CLASSIFICATION_TYPE":"U","NORAD_CAT_ID":270038,"ELEMENT_SET_NO":999,"REV_AT_EPOCH":28690,"BSTAR":0.042067557,"MEAN_MOTION_DOT":0.00010582,"MEAN_MOTION_DDOT":0},{"OBJECT_NAME":"UNKNOWN","OBJECT_ID":"","EPOCH":"2026-02-01T03:55:24.696192","MEAN_MOTION":14.04828018,"ECCENTRICITY":0.0008504,"INCLINATION":82.552,"RA_OF_ASC_NODE":357.2375,"ARG_OF_PERICENTER":243.3383,"MEAN_ANOMALY":116.6918,"EPHEMERIS_TYPE":0,"CLASSIFICATION_TYPE":"U","NORAD_CAT_ID":270039,"ELEMENT_SET_NO":999,"REV_AT_EPOCH":31580,"BSTAR":0.0017452197,"MEAN_MOTION_DOT":2.815e-5,"MEAN_MOTION_DDOT":0},{"OBJECT_NAME":"UNKNOWN","OBJECT_ID":"","EPOCH":"2026-02-01T08:54:02.640096","MEAN_MOTION":12.53358219,"ECCENTRICITY":0.00272376,"INCLINATION":101.4018,"RA_OF_ASC_NODE":75.9151,"ARG_OF_PERICENTER":126.0969,"MEAN_ANOMALY":234.2632,"EPHEMERIS_TYPE":0,"CLASSIFICATION_TYPE":"U","NORAD_CAT_ID":270040,"ELEMENT_SET_NO":999,"REV_AT_EPOCH":28285,"BSTAR":0.0003581397,"MEAN_MOTION_DOT":1.4e-7,"MEAN_MOTION_DDOT":0},{"OBJECT_NAME":"UNKNOWN","OBJECT_ID":"","EPOCH":"2026-01-31T00:24:32.249088","MEAN_MOTION":13.96407692,"ECCENTRICITY":0.02199802,"INCLINATION":98.491,"RA_OF_ASC_NODE":140.5775,"ARG_OF_PERICENTER":238.1012,"MEAN_ANOMALY":119.8583,"EPHEMERIS_TYPE":0,"CLASSIFICATION_TYPE":"U","NORAD_CAT_ID":270041,"ELEMENT_SET_NO":999,"REV_AT_EPOCH":31391,"BSTAR":0.001645498,"MEAN_MOTION_DOT":2.744e-5,"MEAN_MOTION_DDOT":0},{"OBJECT_NAME":"UNKNOWN","OBJECT_ID":"","EPOCH":"2026-01-09T01:44:00.109536","MEAN_MOTION":12.2620382,"ECCENTRICITY":0.01362916,"INCLINATION":74.0224,"RA_OF_ASC_NODE":141.3181,"ARG_OF_PERICENTER":116.9073,"MEAN_ANOMALY":244.5966,"EPHEMERIS_TYPE":0,"CLASSIFICATION_TYPE":"U","NORAD_CAT_ID":270042,"ELEMENT_SET_NO":999,"REV_AT_EPOCH":27399,"BSTAR":0.00020752347,"MEAN_MOTION_DOT":1.0e-7,"MEAN_MOTION_DDOT":0},{"OBJECT_NAME":"UNKNOWN","OBJECT_ID":"","EPOCH":"2026-01-19T09:31:58.880928","MEAN_MOTION":13.92353666,"ECCENTRICITY":0.02523687,"INCLINATION":98.9089,"RA_OF_ASC_NODE":78.0149,"ARG_OF_PERICENTER":200.4528,"MEAN_ANOMALY":158.6384,"EPHEMERIS_TYPE":0,"CLASSIFICATION_TYPE":"U","NORAD_CAT_ID":270043,"ELEMENT_SET_NO":999,"REV_AT_EPOCH":31077,"BSTAR":0.0011663651,"MEAN_MOTION_DOT":1.903e-5,"MEAN_MOTION_DDOT":0},{"OBJECT_NAME":"UNKNOWN","OBJECT_ID":"","EPOCH":"2026-01-26T04:57:38.477376","MEAN_MOTION":13.00608968,"ECCENTRICITY":0.00134825,"INCLINATION":90.2526,"RA_OF_ASC_NODE":10.2038,"ARG_OF_PERICENTER":250.5206,"MEAN_ANOMALY":109.446,"EPHEMERIS_TYPE":0,"CLASSIFICATION_TYPE":"U","NORAD_CAT_ID":270044,"ELEMENT_SET_NO":999,"REV_AT_EPOCH":29235,"BSTAR":-0.0014917752,"MEAN_MOTION_DOT":-4.45e-6,"MEAN_MOTION_DDOT":0},{"OBJECT_NAME":"UNKNOWN","OBJECT_ID":"","EPOCH":"2026-02-01T16:03:06.886080","MEAN_MOTION":12.96428331,"ECCENTRICITY":0.00396917,"INCLINATION":90.2525,"RA_OF_ASC_NODE":10.3331,"ARG_OF_PERICENTER":126.1273,"MEAN_ANOMALY":234.3531,"EPHEMERIS_TYPE":0,"CLASSIFICATION_TYPE":"U","NORAD_CAT_ID":270045,"ELEMENT_SET_NO":999,"REV_AT_EPOCH":29259,"BSTAR":2.5183443e-5,"MEAN_MOTION_DOT":1.5e-7,"MEAN_MOTION_DDOT":0}]
